{
    "links": {
        "self": "http://www.neowsapp.com/rest/v1/neo/54087756?api_key=iIulBulltgU6a56xZRHN4H3l9WmuAYTsLGpBGhQ2"
    },
    "id": "54087756",
    "neo_reference_id": "54087756",
    "name": "(2020 VP3)",
    "designation": "2020 VP3",
    "nasa_jpl_url": "http://ssd.jpl.nasa.gov/sbdb.cgi?sstr=54087756",
    "absolute_magnitude_h": 23.44,
    "estimated_diameter": {
        "kilometers": {
            "estimated_diameter_min": 0.0545198907,
            "estimated_diameter_max": 0.1219101818
        },
        "meters": {
            "estimated_diameter_min": 54.5198907132,
            "estimated_diameter_max": 121.9101817605
        },
        "miles": {
            "estimated_diameter_min": 0.033877079,
            "estimated_diameter_max": 0.0757514516
        },
        "feet": {
            "estimated_diameter_min": 178.8710382474,
            "estimated_diameter_max": 399.9678007272
        }
    },
    "is_potentially_hazardous_asteroid": false,
    "close_approach_data": [
        {
            "close_approach_date": "2020-11-27",
            "close_approach_date_full": "2020-Nov-27 04:38",
            "epoch_date_close_approach": 1606451880000,
            "relative_velocity": {
                "kilometers_per_second": "17.3703822122",
                "kilometers_per_hour": "62533.3759637882",
                "miles_per_hour": "38855.8079703883"
            },
            "miss_distance": {
                "astronomical": "0.1824977305",
                "lunar": "70.9916171645",
                "kilometers": "27301271.762634035",
                "miles": "16964223.631798283"
            },
            "orbiting_body": "Earth"
        },
        {
            "close_approach_date": "2021-04-25",
            "close_approach_date_full": "2021-Apr-25 13:20",
            "epoch_date_close_approach": 1619356800000,
            "relative_velocity": {
                "kilometers_per_second": "13.9566685326",
                "kilometers_per_hour": "50244.0067172768",
                "miles_per_hour": "31219.6718405213"
            },
            "miss_distance": {
                "astronomical": "0.4770053215",
                "lunar": "185.5550700635",
                "kilometers": "71358980.075065205",
                "miles": "44340414.126321629"
            },
            "orbiting_body": "Earth"
        }
    ],
    "orbital_data": {
        "orbit_id": "8",
        "orbit_determination_date": "2020-11-26 05:21:10",
        "first_observation_date": "2020-11-11",
        "last_observation_date": "2020-11-26",
        "data_arc_in_days": 15,
        "observations_used": 47,
        "orbit_uncertainty": "8",
        "minimum_orbit_intersection": ".172332",
        "jupiter_tisserand_invariant": "3.921",
        "epoch_osculation": "2459170.5",
        "eccentricity": ".4897592355930553",
        "semi_major_axis": "1.713667789089228",
        "inclination": "27.80975995918062",
        "ascending_node_longitude": "51.32140793607569",
        "orbital_period": "819.3856942284312",
        "perihelion_distance": ".8743831626444464",
        "perihelion_argument": "83.52702947242315",
        "aphelion_distance": "2.552952415534009",
        "perihelion_time": "2459238.836680542298",
        "mean_anomaly": "329.9760379409689",
        "mean_motion": ".4393535334284686",
        "equinox": "J2000",
        "orbit_class": {
            "orbit_class_type": "APO",
            "orbit_class_description": "Near-Earth asteroid orbits which cross the Earth’s orbit similar to that of 1862 Apollo",
            "orbit_class_range": "a (semi-major axis) > 1.0 AU; q (perihelion) < 1.017 AU"
        }
    },
    "is_sentry_object": false
}